SL-14 R/B               
1 16792U 86046B   26070.49120250  .00000567  00000+0  62494-4 0  9993
2 16792  82.4784  78.4790 0022080 219.1346 140.8274 14.85592274126678
SL-14 R/B               
1 16882U 86055B   26070.21727883  .00000485  00000+0  53043-4 0  9997
2 16882  82.5199 125.2384 0018042 331.3423  89.8517 14.85644148119598
AJISAI (EGS)            
1 16908U 86061A   26070.56696852 -.00000098  00000+0 -47266-5 0  9995
2 16908  50.0080  87.5747 0011272 291.8494 157.2804 12.44515669468230
SL-14 R/B               
1 17567U 87024B   26070.45661552  .00000527  00000+0  57222-4 0  9991
2 17567  82.5246  91.1026 0016718 253.5370 106.4009 14.86133767 88396
COSMOS 1833             
1 17589U 87027A   26070.13449017 -.00000189  00000+0 -75051-4 0  9999
2 17589  70.9221 322.9827 0024201 212.5110 147.4522 14.13054436 10521
SL-16 R/B               
1 17590U 87027B   26070.52748304  .00000042  00000+0  44696-4 0  9992
2 17590  70.9996 272.6223 0003287 139.0019 221.1352 14.17166568 15604
SL-14 R/B               
1 17912U 87038B   26070.04830908  .00000488  00000+0  53734-4 0  9998
2 17912  82.4999 295.5279 0019786 156.0818 204.1322 14.85370579 79438
COSMOS 1844             
1 17973U 87041A   26070.30955781 -.00000159  00000+0 -57148-4 0  9995
2 17973  70.9000  30.7579 0030107  15.3578 344.8450 14.14551754  3813
SL-14 R/B               
1 18153U 87055B   26070.22704906  .00000648  00000+0  71783-4 0  9995
2 18153  82.5030 347.5829 0021036  12.7804 347.3941 14.85631544 70166
COSMOS 1867             
1 18187U 87060A   26070.04808683 -.00000020  00000+0  30081-4 0  9996
2 18187  65.0111 302.9016 0014498 278.7442  81.2000 14.31503269 20133
SL-14 R/B               
1 18749U 88001B   26070.42453986  .00000698  00000+0  77853-4 0  9998
2 18749  82.5156 193.7287 0016933 229.5625 130.4115 14.85530276 42280
COSMOS 1933             
1 18958U 88020A   26070.50399682  .00005827  00000+0  28517-3 0  9993
2 18958  82.5103 249.1161 0004069 175.1712 184.9562 15.18003025 50509
